{
 "generated_at": "2026-06-26T08:30:21Z",
 "sources": [
  {
   "name": "CelesTrak",
   "url": "https://celestrak.org/NORAD/elements/",
   "license": "frei verfügbar; Attribution. Ursprünglich USSPACECOM/Space-Track."
  },
  {
   "name": "GCAT (J. McDowell, planet4589.org)",
   "url": "https://planet4589.org/space/gcat/",
   "license": "CC-BY 4.0"
  }
 ],
 "satellites": [
  {
   "norad": 52200,
   "name": "GAOFEN-3 03",
   "intl": "2022-035A",
   "group": "sar",
   "gcat": {
    "class": "C",
    "category": "IMG-R",
    "owner": "GWHYZ",
    "state": "CN"
   },
   "omm": {
    "OBJECT_NAME": "GAOFEN-3 03",
    "OBJECT_ID": "2022-035A",
    "EPOCH": "2026-06-26T05:58:17.753376",
    "MEAN_MOTION": 14.42215801,
    "ECCENTRICITY": 0.0001518,
    "INCLINATION": 98.4064,
    "RA_OF_ASC_NODE": 185.6978,
    "ARG_OF_PERICENTER": 100.3609,
    "MEAN_ANOMALY": 259.7752,
    "EPHEMERIS_TYPE": 0,
    "CLASSIFICATION_TYPE": "U",
    "NORAD_CAT_ID": 52200,
    "ELEMENT_SET_NO": 999,
    "REV_AT_EPOCH": 22215,
    "BSTAR": 0.000012223,
    "MEAN_MOTION_DOT": -3e-8,
    "MEAN_MOTION_DDOT": 0
   }
  },
  {
   "norad": 41194,
   "name": "GAOFEN-4",
   "intl": "2015-083A",
   "group": "resource",
   "gcat": {
    "class": "C",
    "category": "IMG",
    "owner": "CNSAS",
    "state": "CN"
   },
   "omm": {
    "OBJECT_NAME": "GAOFEN-4",
    "OBJECT_ID": "2015-083A",
    "EPOCH": "2026-06-25T21:39:16.789824",
    "MEAN_MOTION": 1.00271078,
    "ECCENTRICITY": 0.0004051,
    "INCLINATION": 0.3805,
    "RA_OF_ASC_NODE": 83.9226,
    "ARG_OF_PERICENTER": 113.8387,
    "MEAN_ANOMALY": 146.7998,
    "EPHEMERIS_TYPE": 0,
    "CLASSIFICATION_TYPE": "U",
    "NORAD_CAT_ID": 41194,
    "ELEMENT_SET_NO": 999,
    "REV_AT_EPOCH": 3861,
    "BSTAR": 0,
    "MEAN_MOTION_DOT": -0.00000324,
    "MEAN_MOTION_DDOT": 0
   }
  },
  {
   "norad": 43461,
   "name": "GAOFEN-5 01",
   "intl": "2018-043A",
   "group": "resource",
   "gcat": {
    "class": null,
    "category": null,
    "owner": null,
    "state": null
   },
   "omm": {
    "OBJECT_NAME": "GAOFEN-5 01",
    "OBJECT_ID": "2018-043A",
    "EPOCH": "2026-06-26T04:08:58.009632",
    "MEAN_MOTION": 14.60611347,
    "ECCENTRICITY": 0.0002918,
    "INCLINATION": 98.4574,
    "RA_OF_ASC_NODE": 148.9479,
    "ARG_OF_PERICENTER": 67.8367,
    "MEAN_ANOMALY": 292.3142,
    "EPHEMERIS_TYPE": 0,
    "CLASSIFICATION_TYPE": "U",
    "NORAD_CAT_ID": 43461,
    "ELEMENT_SET_NO": 999,
    "REV_AT_EPOCH": 43300,
    "BSTAR": 0.000079857,
    "MEAN_MOTION_DOT": 0.00000339,
    "MEAN_MOTION_DDOT": 0
   }
  },
  {
   "norad": 43484,
   "name": "GAOFEN-6",
   "intl": "2018-048A",
   "group": "resource",
   "gcat": {
    "class": "C",
    "category": "IMG",
    "owner": "CNSAS",
    "state": "CN"
   },
   "omm": {
    "OBJECT_NAME": "GAOFEN-6",
    "OBJECT_ID": "2018-048A",
    "EPOCH": "2026-06-25T19:30:44.521056",
    "MEAN_MOTION": 14.7642351,
    "ECCENTRICITY": 0.0011702,
    "INCLINATION": 98.0567,
    "RA_OF_ASC_NODE": 239.473,
    "ARG_OF_PERICENTER": 138.2342,
    "MEAN_ANOMALY": 221.9762,
    "EPHEMERIS_TYPE": 0,
    "CLASSIFICATION_TYPE": "U",
    "NORAD_CAT_ID": 43484,
    "ELEMENT_SET_NO": 999,
    "REV_AT_EPOCH": 43466,
    "BSTAR": 0.000048573,
    "MEAN_MOTION_DOT": 0.00000286,
    "MEAN_MOTION_DDOT": 0
   }
  },
  {
   "norad": 40701,
   "name": "GAOFEN-8",
   "intl": "2015-030A",
   "group": "resource",
   "gcat": {
    "class": "D",
    "category": "IMG",
    "owner": "ZZB",
    "state": "CN"
   },
   "omm": {
    "OBJECT_NAME": "GAOFEN-8",
    "OBJECT_ID": "2015-030A",
    "EPOCH": "2026-06-26T05:07:21.743040",
    "MEAN_MOTION": 15.46257408,
    "ECCENTRICITY": 0.0009419,
    "INCLINATION": 97.6906,
    "RA_OF_ASC_NODE": 11.1274,
    "ARG_OF_PERICENTER": 155.524,
    "MEAN_ANOMALY": 204.6457,
    "EPHEMERIS_TYPE": 0,
    "CLASSIFICATION_TYPE": "U",
    "NORAD_CAT_ID": 40701,
    "ELEMENT_SET_NO": 999,
    "REV_AT_EPOCH": 61284,
    "BSTAR": 0.00027753,
    "MEAN_MOTION_DOT": 0.00013589,
    "MEAN_MOTION_DDOT": 0
   }
  },
  {
   "norad": 40894,
   "name": "GAOFEN-9 01",
   "intl": "2015-047A",
   "group": "resource",
   "gcat": {
    "class": null,
    "category": null,
    "owner": null,
    "state": null
   },
   "omm": {
    "OBJECT_NAME": "GAOFEN-9 01",
    "OBJECT_ID": "2015-047A",
    "EPOCH": "2026-06-26T05:44:53.905056",
    "MEAN_MOTION": 14.82900162,
    "ECCENTRICITY": 0.0028829,
    "INCLINATION": 97.6271,
    "RA_OF_ASC_NODE": 212.5228,
    "ARG_OF_PERICENTER": 109.4753,
    "MEAN_ANOMALY": 250.958,
    "EPHEMERIS_TYPE": 0,
    "CLASSIFICATION_TYPE": "U",
    "NORAD_CAT_ID": 40894,
    "ELEMENT_SET_NO": 999,
    "REV_AT_EPOCH": 58153,
    "BSTAR": 0.00012668,
    "MEAN_MOTION_DOT": 0.00000983,
    "MEAN_MOTION_DDOT": 0
   }
  },
  {
   "norad": 43823,
   "name": "GEO-KOMPSAT-2A",
   "intl": "2018-100A",
   "group": "weather",
   "gcat": {
    "class": "C",
    "category": "MET",
    "owner": "KARI",
    "state": "KR"
   },
   "omm": {
    "OBJECT_NAME": "GEO-KOMPSAT-2A",
    "OBJECT_ID": "2018-100A",
    "EPOCH": "2026-06-25T20:03:12.714048",
    "MEAN_MOTION": 1.00270592,
    "ECCENTRICITY": 0.0002457,
    "INCLINATION": 0.0442,
    "RA_OF_ASC_NODE": 157.6311,
    "ARG_OF_PERICENTER": 293.4522,
    "MEAN_ANOMALY": 251.9424,
    "EPHEMERIS_TYPE": 0,
    "CLASSIFICATION_TYPE": "U",
    "NORAD_CAT_ID": 43823,
    "ELEMENT_SET_NO": 999,
    "REV_AT_EPOCH": 2771,
    "BSTAR": 0,
    "MEAN_MOTION_DOT": -0.00000333,
    "MEAN_MOTION_DDOT": 0
   }
  },
  {
   "norad": 33331,
   "name": "GEOEYE 1",
   "intl": "2008-042A",
   "group": "resource",
   "gcat": {
    "class": null,
    "category": "IMG",
    "owner": "GEYE",
    "state": "US"
   },
   "omm": {
    "OBJECT_NAME": "GEOEYE 1",
    "OBJECT_ID": "2008-042A",
    "EPOCH": "2026-06-26T04:03:39.960000",
    "MEAN_MOTION": 14.64634006,
    "ECCENTRICITY": 0.0005296,
    "INCLINATION": 98.1333,
    "RA_OF_ASC_NODE": 250.9868,
    "ARG_OF_PERICENTER": 43.6851,
    "MEAN_ANOMALY": 316.477,
    "EPHEMERIS_TYPE": 0,
    "CLASSIFICATION_TYPE": "U",
    "NORAD_CAT_ID": 33331,
    "ELEMENT_SET_NO": 999,
    "REV_AT_EPOCH": 95146,
    "BSTAR": 0.00026584,
    "MEAN_MOTION_DOT": 0.00001365,
    "MEAN_MOTION_DDOT": 0
   }
  },
  {
   "norad": 35491,
   "name": "GOES 14",
   "intl": "2009-033A",
   "group": "weather",
   "gcat": {
    "class": "C",
    "category": "MET",
    "owner": "NOAA",
    "state": "US"
   },
   "omm": {
    "OBJECT_NAME": "GOES 14",
    "OBJECT_ID": "2009-033A",
    "EPOCH": "2026-06-26T00:37:51.672864",
    "MEAN_MOTION": 1.00108583,
    "ECCENTRICITY": 0.0002226,
    "INCLINATION": 1.7132,
    "RA_OF_ASC_NODE": 82.9457,
    "ARG_OF_PERICENTER": 18.3992,
    "MEAN_ANOMALY": 318.9543,
    "EPHEMERIS_TYPE": 0,
    "CLASSIFICATION_TYPE": "U",
    "NORAD_CAT_ID": 35491,
    "ELEMENT_SET_NO": 999,
    "REV_AT_EPOCH": 667,
    "BSTAR": 0,
    "MEAN_MOTION_DOT": -0.00000312,
    "MEAN_MOTION_DDOT": 0
   }
  },
  {
   "norad": 41866,
   "name": "GOES 16",
   "intl": "2016-071A",
   "group": "weather",
   "gcat": {
    "class": "C",
    "category": "MET",
    "owner": "NOAA",
    "state": "US"
   },
   "omm": {
    "OBJECT_NAME": "GOES 16",
    "OBJECT_ID": "2016-071A",
    "EPOCH": "2026-06-26T05:31:09.471072",
    "MEAN_MOTION": 1.00272055,
    "ECCENTRICITY": 0.000056,
    "INCLINATION": 0.3642,
    "RA_OF_ASC_NODE": 85.5308,
    "ARG_OF_PERICENTER": 4.8068,
    "MEAN_ANOMALY": 162.1132,
    "EPHEMERIS_TYPE": 0,
    "CLASSIFICATION_TYPE": "U",
    "NORAD_CAT_ID": 41866,
    "ELEMENT_SET_NO": 999,
    "REV_AT_EPOCH": 3519,
    "BSTAR": 0,
    "MEAN_MOTION_DOT": -8e-7,
    "MEAN_MOTION_DDOT": 0
   }
  }
 ]
}
